[Satellite]
VERSION=1.1
NAME=GALAXY 34
NICKNAME=GALAXY 34
TLE1=1 54027U 22128B   22294.07079223 -.00000105  00000+0  00000+0 0  9997
TLE2=2 54027   6.5916 190.5035 3642556 182.7113   1.8529  1.60832320   363
STATUS=0
